[{"OBJECT_NAME":"OBJECT A","OBJECT_ID":"2023-104A","EPOCH":"2026-03-06T18:47:13.750656","MEAN_MOTION":15.33350758,"ECCENTRICITY":0.00093331,"INCLINATION":97.2792,"RA_OF_ASC_NODE":135.5625,"ARG_OF_PERICENTER":122.1915,"MEAN_ANOMALY":238.0234,"EPHEMERIS_TYPE":0,"CLASSIFICATION_TYPE":"U","NORAD_CAT_ID":57424,"ELEMENT_SET_NO":999,"REV_AT_EPOCH":14634,"BSTAR":0.00048200218,"MEAN_MOTION_DOT":0.00015492,"MEAN_MOTION_DDOT":0},{"OBJECT_NAME":"STARLINK-34770","OBJECT_ID":"2025-161X","EPOCH":"2026-03-09T22:17:40.550784","MEAN_MOTION":15.30208306,"ECCENTRICITY":7.401e-5,"INCLINATION":53.1587,"RA_OF_ASC_NODE":293.2909,"ARG_OF_PERICENTER":99.5547,"MEAN_ANOMALY":260.5537,"EPHEMERIS_TYPE":0,"CLASSIFICATION_TYPE":"U","NORAD_CAT_ID":65036,"ELEMENT_SET_NO":999,"REV_AT_EPOCH":3426,"BSTAR":0.00018363822,"MEAN_MOTION_DOT":5.085e-5,"MEAN_MOTION_DDOT":0}]
